BEIDOU-2 IGSO-5         
1 37948U 11073A   26183.72937883 -.00000128  00000+0  00000+0 0  9990
2 37948  47.6496 271.3544 0114527 222.0502 141.5350  1.00270596 53296
BEIDOU-2 M3             
1 38250U 12018A   26201.48012296 -.00000102  00000+0  00000+0 0  9995
2 38250  55.7268 303.7525 0021072 272.1395  87.6505  1.86229649 96563
BEIDOU-2 M4             
1 38251U 12018B   26200.87551788 -.00000099  00000+0  00000+0 0  9997
2 38251  55.6273 302.9841 0012238 272.0265  87.8661  1.86229306 96554
SES-5                   
1 38652U 12036A   26201.83314101  .00000034  00000+0  00000+0 0  9993
2 38652   0.0455 319.1649 0002048 159.4963 124.8448  1.00273131 44797
BEIDOU-2 M6             
1 38775U 12050B   26201.12202765 -.00000077  00000+0  00000+0 0  9997
2 38775  56.5733  61.8055 0012726   2.2324 357.8361  1.86230986 93926
GSAT-10                 
1 38779U 12051B   26201.84860429 -.00000165  00000+0  00000+0 0  9996
2 38779   0.0763 263.8454 0007594 191.8380 231.4395  1.00272720 50439
NAVSTAR 67 (USA 239)    
1 38833U 12053A   26200.72298786  .00000024  00000+0  00000+0 0  9999
2 38833  53.5900 142.2664 0182319  66.3029 295.5767  2.00568051100092
GSAT0103 (GALILEO-FM3)  
1 38857U 12055A   26200.15144010 -.00000035  00000+0  00000+0 0  9997
2 38857  55.8248 100.6680 0003622 312.6356  47.3724  1.70473478 85556
LUCH-5B                 
1 38977U 12061A   26201.82898098 -.00000144  00000+0  00000+0 0  9995
2 38977  10.5548  49.5452 0003780 144.3715  26.8115  1.00270597 49941
COSMOS 2485 [GLONASS-M] 
1 39155U 13019A   26201.22743888 -.00000049  00000+0  00000+0 0  9992
2 39155  65.4381  72.4960 0022557 230.6909 129.1761  2.13103050102982
NAVSTAR 68 (USA 242)    
1 39166U 13023A   26201.08939617 -.00000038  00000+0  00000+0 0  9998
2 39166  54.4792 267.6316 0141392  51.1093 310.2110  2.00563399 96547
IRNSS-1A                
1 39199U 13034A   26191.72043649  .00000047  00000+0  00000+0 0  9995
2 39199  35.7704  63.5328 0017567 183.4462 356.2994  1.00281941 47601
NAVSTAR 69 (USA 248)    
1 39533U 14008A   26201.09126277  .00000031  00000+0  00000+0 0  9993
2 39533  53.6581 147.9776 0084050 231.5729 127.6475  2.00561932 90346
ASTRA 5B                
1 39617U 14011B   26201.83678102  .00000137  00000+0  00000+0 0  9998
2 39617   0.0651 309.2863 0002125 177.6358 136.3639  1.00271370 45009
COSMOS 2492 [GLONASS-M] 
1 39620U 14012A   26201.18630057 -.00000083  00000+0  00000+0 0  9999
2 39620  65.2760 312.8143 0010304 316.7836  43.1566  2.13103109 95944
IRNSS-1B                
1 39635U 14017A   26201.70039295  .00000132  00000+0  00000+0 0  9999
2 39635  28.8630 239.8244 0021631 191.1271 174.7813  1.00267485 45139
NAVSTAR 70 (USA 251)    
1 39741U 14026A   26201.36747109 -.00000107  00000+0  00000+0 0  9992
2 39741  56.4802 330.2261 0038171 325.6400  34.1182  2.00558630 89205
COSMOS 2500 [GLONASS-M] 
1 40001U 14032A   26201.35563738 -.00000083  00000+0  00000+0 0  9996
2 40001  65.2111 312.5528 0008480 191.4988 168.5032  2.13105793 94165
NAVSTAR 71 (USA 256)    
1 40105U 14045A   26200.96051760 -.00000053  00000+0  00000+0 0  9995
2 40105  55.3745  87.1591 0034747 118.4820 241.9209  2.00560594 86733
GSAT0201 (GALILEO 5)    
1 40128U 14050A   26201.83400234 -.00000062  00000+0  00000+0 0  9997
2 40128  48.8385 272.0546 1679286 180.7098 179.0701  1.85519911 78944
GSAT0202 (GALILEO 6)    
1 40129U 14050B   26198.85553230 -.00000054  00000+0  00000+0 0  9991
2 40129  48.8588 271.2629 1680174 181.3093 178.2437  1.85520332 81055
IRNSS-1C                
1 40269U 14061A   26201.70602686 -.00000167  00000+0  00000+0 0  9992
2 40269   6.5999  88.2929 0021939   6.0783 181.3257  1.00271443 43025
NAVSTAR 72 (USA 258)    
1 40294U 14068A   26201.32757640 -.00000086  00000+0  00000+0 0  9996
2 40294  57.0105  29.6792 0067443  72.4547 288.3175  2.00553617 85878
COSMOS 2501 [GLONASS-K] 
1 40315U 14075A   26201.14879818  .00000081  00000+0  00000+0 0  9994
2 40315  63.6185 189.2310 0022691 212.6383 147.2200  2.13101297 90554
NAVSTAR 73 (USA 260)    
1 40534U 15013A   26200.97012806  .00000064  00000+0  00000+0 0  9997
2 40534  53.2396 202.8474 0109920  39.9101 320.9028  2.00574099 82489
GSAT0203 (GALILEO 7)    
1 40544U 15017A   26201.64801056 -.00000108  00000+0  00000+0 0  9990
2 40544  56.7747 340.6846 0002804 253.6910 106.2721  1.70476362 69770
GSAT0204 (GALILEO 8)    
1 40545U 15017B   26201.31731189 -.00000108  00000+0  00000+0 0  9994
2 40545  56.7823 340.7123 0002939 234.3577 125.6085  1.70475832 32813
