OBJECT_NAME,OBJECT_ID,EPOCH,MEAN_MOTION,ECCENTRICITY,INCLINATION,RA_OF_ASC_NODE,ARG_OF_PERICENTER,MEAN_ANOMALY,EPHEMERIS_TYPE,CLASSIFICATION_TYPE,NORAD_CAT_ID,ELEMENT_SET_NO,REV_AT_EPOCH,BSTAR,MEAN_MOTION_DOT,MEAN_MOTION_DDOT
BEIDOU-2 IGSO-5 (C10),2011-073A,2026-07-02T17:30:18.330912,1.00270596,.01145273,47.6496,271.3544,222.0502,141.5350,0,U,37948,999,5329,0,-.128E-5,0
BEIDOU-2 M3 (C11),2012-018A,2026-07-20T11:31:22.623744,1.86229649,.0021072,55.7268,303.7525,272.1395,87.6505,0,U,38250,999,9656,0,-.102E-5,0
BEIDOU-2 M4 (C12),2012-018B,2026-07-19T21:00:44.744832,1.86229306,.00122384,55.6273,302.9841,272.0265,87.8661,0,U,38251,999,9655,0,-.99E-6,0
SES-5 (EGNOS/PRN 136),2012-036A,2026-07-20T19:59:43.383264,1.00273131,.0002049,0.0455,319.1649,159.4963,124.8448,0,U,38652,999,4479,0,.34E-6,0
BEIDOU-2 M6 (C14),2012-050B,2026-07-20T02:55:43.188960,1.86230986,.00127267,56.5733,61.8055,2.2324,357.8361,0,U,38775,999,9392,0,-.77E-6,0
GSAT-10 (GAGAN/PRN 128),2012-051B,2026-07-20T20:21:59.409792,1.00272720,.0007594,0.0763,263.8454,191.8380,231.4395,0,U,38779,999,5043,0,-.165E-5,0
GPS BIIF-3  (PRN 24),2012-053A,2026-07-19T17:21:06.151104,2.00568051,.018232,53.5900,142.2664,66.3029,295.5767,0,U,38833,999,10009,0,.24E-6,0
GSAT0103 (GALILEO-FM3),2012-055A,2026-07-19T03:38:04.424640,1.70473478,.0003622,55.8248,100.6680,312.6356,47.3724,0,U,38857,999,8555,0,-.35E-6,0
LUCH 5B (SDCM/PRN 125),2012-061A,2026-07-20T19:53:43.956672,1.00270597,.000378,10.5548,49.5452,144.3715,26.8115,0,U,38977,999,4994,0,-.144E-5,0
COSMOS 2485 (747),2013-019A,2026-07-20T05:27:30.719232,2.13103050,.0022558,65.4381,72.4960,230.6909,129.1761,0,U,39155,999,10298,0,-.49E-6,0
GPS BIIF-4  (PRN 27),2013-023A,2026-07-20T02:08:43.829088,2.00563399,.0141392,54.4792,267.6316,51.1093,310.2110,0,U,39166,999,9654,0,-.38E-6,0
IRNSS-1A,2013-034A,2026-07-10T17:17:25.712736,1.00281941,.0017567,35.7704,63.5328,183.4462,356.2994,0,U,39199,999,4760,0,.47E-6,0
GPS BIIF-5  (PRN 30),2014-008A,2026-07-20T02:11:25.103328,2.00561932,.008405,53.6581,147.9776,231.5729,127.6475,0,U,39533,999,9034,0,.31E-6,0
ASTRA 5B (EGNOS/PRN 123),2014-011B,2026-07-20T20:04:57.880128,1.00271370,.0002126,0.0651,309.2863,177.6358,136.3639,0,U,39617,999,4500,0,.137E-5,0
COSMOS 2492 (754),2014-012A,2026-07-20T04:28:16.369248,2.13103109,.00103044,65.2760,312.8143,316.7836,43.1566,0,U,39620,999,9594,0,-.83E-6,0
IRNSS-1B,2014-017A,2026-07-20T16:48:33.950016,1.00267485,.0021631,28.8630,239.8244,191.1271,174.7813,0,U,39635,999,4513,0,.132E-5,0
GPS BIIF-6  (PRN 06),2014-026A,2026-07-20T08:49:09.502176,2.00558630,.00381711,56.4802,330.2261,325.6400,34.1182,0,U,39741,999,8920,0,-.107E-5,0
COSMOS 2500 (755),2014-032A,2026-07-20T08:32:07.069632,2.13105793,.00084802,65.2111,312.5528,191.4988,168.5032,0,U,40001,999,9416,0,-.83E-6,0
GPS BIIF-7  (PRN 09),2014-045A,2026-07-19T23:03:08.720640,2.00560594,.00347476,55.3745,87.1591,118.4820,241.9209,0,U,40105,999,8673,0,-.53E-6,0
GSAT0201 (GALILEO 5),2014-050A,2026-07-20T20:00:57.802176,1.85519911,.1679286,48.8385,272.0546,180.7098,179.0701,0,U,40128,999,7894,0,-.62E-6,0
GSAT0202 (GALILEO 6),2014-050B,2026-07-17T20:31:57.990720,1.85520332,.16801746,48.8588,271.2629,181.3093,178.2437,0,U,40129,999,8105,0,-.54E-6,0
IRNSS-1C,2014-061A,2026-07-20T16:56:40.719840,1.00271443,.0021939,6.5999,88.2929,6.0783,181.3257,0,U,40269,999,4302,0,-.167E-5,0
GPS BIIF-8  (PRN 03),2014-068A,2026-07-20T07:51:42.600960,2.00553617,.00674439,57.0105,29.6792,72.4547,288.3175,0,U,40294,999,8587,0,-.86E-6,0
COSMOS 2501 (702K),2014-075A,2026-07-20T03:34:16.162752,2.13101297,.00226918,63.6185,189.2310,212.6383,147.2200,0,U,40315,999,9055,0,.81E-6,0
GPS BIIF-9  (PRN 26),2015-013A,2026-07-19T23:16:59.064384,2.00574099,.01099207,53.2396,202.8474,39.9101,320.9028,0,U,40534,999,8248,0,.64E-6,0
GSAT0203 (GALILEO 7),2015-017A,2026-07-20T15:33:08.112384,1.70476362,.0002805,56.7747,340.6846,253.6910,106.2721,0,U,40544,999,6977,0,-.108E-5,0
GSAT0204 (GALILEO 8),2015-017B,2026-07-20T07:36:55.747296,1.70475832,.0002939,56.7823,340.7123,234.3577,125.6085,0,U,40545,999,3281,0,-.108E-5,0
